STARLINK-34031          
1 63912U 25095Y   26068.34149453  .00036571  00000+0  13314-2 0  9992
2 63912  43.0013 178.2621 0002557 285.2493  74.8075 15.27590409 47726
KUIPER-00209            
1 67776U 26030N   26068.61786546  .00035298  00000+0  11963-2 0  9997
2 67776  51.8838 220.0775 0012191  59.1967 301.0215 15.30161950  5077
